METEOR 2-1 DEB          
1 57492U 75064F   26069.78005252  .00005901  00000+0  23523-2 0  9992
2 57492  81.2784  97.7263 0005160  26.0456 334.0984 14.28462970388933
HJ-2F                   
1 57519U 23116A   26073.62239804  .00012698  00000+0  57649-3 0  9991
2 57519  97.3880  80.5744 0009527  26.4850 333.6871 15.20884083144379
XRISM                   
1 57800U 23137A   26073.59330807  .00007043  00000+0  39923-3 0  9991
2 57800  31.0008 251.9451 0007925  87.8995 272.2551 15.11561108138533
METEOR-M2 4             
1 59051U 24039A   26073.64345834  .00000026  00000+0  31231-4 0  9994
2 59051  98.6911  34.1817 0008202  84.0351 276.1761 14.22418110105823
GRBBETA                 
1 60237U 24128C   26073.62106491  .00006669  00000+0  45815-3 0  9994
2 60237  61.9900 187.8576 0050982 115.0019 245.6380 15.05861275 92029
TRANSPORTER-11 OBJECT A 
1 60468U 24149A   26073.19031457  .00011378  00000+0  37936-3 0  9992
2 60468  97.3778 153.5163 0003506 174.9626 185.1651 15.31242166 87519
WARATAH SEED-1          
1 60469U 24149B   26073.17908759  .00016201  00000+0  50311-3 0  9991
2 60469  97.3735 153.8267 0002247 165.8028 194.3278 15.33443384 87544
PHISAT 2                
1 60470U 24149C   26073.49851636  .00009575  00000+0  33595-3 0  9990
2 60470  97.3804 153.3264 0001610 158.0649 202.0661 15.29634795 87514
LEMUR-2-TOMATOKECHUP    
1 60471U 24149D   26073.19370810  .00023472  00000+0  71588-3 0  9994
2 60471  97.3826 155.1343 0001811 168.6095 191.5189 15.33941159 87597
CONNECTA IOT-1          
1 60472U 24149E   26072.64217974  .00005776  00000+0  24888-3 0  9993
2 60472  97.3815 150.5776 0000808 200.3368 159.7836 15.22958154 87256
LOPEN                   
1 60473U 24149F   26073.48343943  .00019687  00000+0  54876-3 0  9999
2 60473  97.3814 156.3031 0001254 173.3841 186.7420 15.36811091 87707
ROCK                    
1 60474U 24149G   26073.47043029  .00019027  00000+0  53020-3 0  9999
2 60474  97.3810 156.3095 0001570 179.4389 180.6858 15.36827471 87706
CONNECTA IOT-3          
1 60475U 24149H   26073.51837661  .00006234  00000+0  26794-3 0  9992
2 60475  97.3790 151.2209 0002037 208.9659 151.1465 15.23014406 87396
QUBE                    
1 60476U 24149J   26073.48344805  .00027643  00000+0  63355-3 0  9993
2 60476  97.3808 158.4054 0002221 183.2747 176.8487 15.42725212 87845
WREN-1                  
1 60478U 24149L   26073.18239505  .00027019  00000+0  73044-3 0  9995
2 60478  97.3805 156.5607 0003846 230.9829 129.1073 15.37692189 87709
TOMORROW-S1             
1 60479U 24149M   26073.62583016  .00011793  00000+0  39240-3 0  9996
2 60479  97.3792 154.4821 0002301 188.4575 171.6628 15.31301803 87612
