[{"OBJECT_NAME":"METEOR 2-1 DEB","OBJECT_ID":"1975-064F","EPOCH":"2026-03-10T18:43:16.537728","MEAN_MOTION":14.2846297,"ECCENTRICITY":0.000516,"INCLINATION":81.2784,"RA_OF_ASC_NODE":97.7263,"ARG_OF_PERICENTER":26.0456,"MEAN_ANOMALY":334.0984,"EPHEMERIS_TYPE":0,"CLASSIFICATION_TYPE":"U","NORAD_CAT_ID":57492,"ELEMENT_SET_NO":999,"REV_AT_EPOCH":38893,"BSTAR":0.0023523122,"MEAN_MOTION_DOT":5.901e-5,"MEAN_MOTION_DDOT":0},{"OBJECT_NAME":"HJ-2F","OBJECT_ID":"2023-116A","EPOCH":"2026-03-14T14:56:15.190656","MEAN_MOTION":15.20884083,"ECCENTRICITY":0.00095272,"INCLINATION":97.388,"RA_OF_ASC_NODE":80.5744,"ARG_OF_PERICENTER":26.485,"MEAN_ANOMALY":333.6871,"EPHEMERIS_TYPE":0,"CLASSIFICATION_TYPE":"U","NORAD_CAT_ID":57519,"ELEMENT_SET_NO":999,"REV_AT_EPOCH":14437,"BSTAR":0.00057649243,"MEAN_MOTION_DOT":0.00012698,"MEAN_MOTION_DDOT":0},{"OBJECT_NAME":"XRISM","OBJECT_ID":"2023-137A","EPOCH":"2026-03-14T14:14:21.817248","MEAN_MOTION":15.11561108,"ECCENTRICITY":0.00079256,"INCLINATION":31.0008,"RA_OF_ASC_NODE":251.9451,"ARG_OF_PERICENTER":87.8995,"MEAN_ANOMALY":272.2551,"EPHEMERIS_TYPE":0,"CLASSIFICATION_TYPE":"U","NORAD_CAT_ID":57800,"ELEMENT_SET_NO":999,"REV_AT_EPOCH":13853,"BSTAR":0.00039922596,"MEAN_MOTION_DOT":7.043e-5,"MEAN_MOTION_DDOT":0},{"OBJECT_NAME":"METEOR-M2 4","OBJECT_ID":"2024-039A","EPOCH":"2026-03-14T15:26:34.800576","MEAN_MOTION":14.2241811,"ECCENTRICITY":0.00082022,"INCLINATION":98.6911,"RA_OF_ASC_NODE":34.1817,"ARG_OF_PERICENTER":84.0351,"MEAN_ANOMALY":276.1761,"EPHEMERIS_TYPE":0,"CLASSIFICATION_TYPE":"U","NORAD_CAT_ID":59051,"ELEMENT_SET_NO":999,"REV_AT_EPOCH":10582,"BSTAR":3.1230711e-5,"MEAN_MOTION_DOT":2.6e-7,"MEAN_MOTION_DDOT":0},{"OBJECT_NAME":"GRBBETA","OBJECT_ID":"2024-128C","EPOCH":"2026-03-14T14:54:20.008224","MEAN_MOTION":15.05861275,"ECCENTRICITY":0.0050982,"INCLINATION":61.99,"RA_OF_ASC_NODE":187.8576,"ARG_OF_PERICENTER":115.0019,"MEAN_ANOMALY":245.638,"EPHEMERIS_TYPE":0,"CLASSIFICATION_TYPE":"U","NORAD_CAT_ID":60237,"ELEMENT_SET_NO":999,"REV_AT_EPOCH":9202,"BSTAR":0.00045815441,"MEAN_MOTION_DOT":6.669e-5,"MEAN_MOTION_DDOT":0},{"OBJECT_NAME":"TRANSPORTER-11 OBJECT A","OBJECT_ID":"2024-149A","EPOCH":"2026-03-14T04:34:03.178848","MEAN_MOTION":15.31242166,"ECCENTRICITY":0.00035067,"INCLINATION":97.3778,"RA_OF_ASC_NODE":153.5163,"ARG_OF_PERICENTER":174.9626,"MEAN_ANOMALY":185.1651,"EPHEMERIS_TYPE":0,"CLASSIFICATION_TYPE":"U","NORAD_CAT_ID":60468,"ELEMENT_SET_NO":999,"REV_AT_EPOCH":8751,"BSTAR":0.00037936064,"MEAN_MOTION_DOT":0.00011378,"MEAN_MOTION_DDOT":0},{"OBJECT_NAME":"WARATAH SEED-1","OBJECT_ID":"2024-149B","EPOCH":"2026-03-14T04:17:53.167776","MEAN_MOTION":15.33443384,"ECCENTRICITY":0.00022478,"INCLINATION":97.3735,"RA_OF_ASC_NODE":153.8267,"ARG_OF_PERICENTER":165.8028,"MEAN_ANOMALY":194.3278,"EPHEMERIS_TYPE":0,"CLASSIFICATION_TYPE":"U","NORAD_CAT_ID":60469,"ELEMENT_SET_NO":999,"REV_AT_EPOCH":8754,"BSTAR":0.00050311323,"MEAN_MOTION_DOT":0.00016201,"MEAN_MOTION_DDOT":0},{"OBJECT_NAME":"PHISAT 2","OBJECT_ID":"2024-149C","EPOCH":"2026-03-14T11:57:51.813504","MEAN_MOTION":15.29634795,"ECCENTRICITY":0.00016106,"INCLINATION":97.3804,"RA_OF_ASC_NODE":153.3264,"ARG_OF_PERICENTER":158.0649,"MEAN_ANOMALY":202.0661,"EPHEMERIS_TYPE":0,"CLASSIFICATION_TYPE":"U","NORAD_CAT_ID":60470,"ELEMENT_SET_NO":999,"REV_AT_EPOCH":8751,"BSTAR":0.0003359549,"MEAN_MOTION_DOT":9.575e-5,"MEAN_MOTION_DDOT":0},{"OBJECT_NAME":"LEMUR-2-TOMATOKECHUP","OBJECT_ID":"2024-149D","EPOCH":"2026-03-14T04:38:56.379840","MEAN_MOTION":15.33941159,"ECCENTRICITY":0.00018112,"INCLINATION":97.3826,"RA_OF_ASC_NODE":155.1343,"ARG_OF_PERICENTER":168.6095,"MEAN_ANOMALY":191.5189,"EPHEMERIS_TYPE":0,"CLASSIFICATION_TYPE":"U","NORAD_CAT_ID":60471,"ELEMENT_SET_NO":999,"REV_AT_EPOCH":8759,"BSTAR":0.00071587773,"MEAN_MOTION_DOT":0.00023472,"MEAN_MOTION_DDOT":0},{"OBJECT_NAME":"CONNECTA IOT-1","OBJECT_ID":"2024-149E","EPOCH":"2026-03-13T15:24:44.329536","MEAN_MOTION":15.22958154,"ECCENTRICITY":8.089e-5,"INCLINATION":97.3815,"RA_OF_ASC_NODE":150.5776,"ARG_OF_PERICENTER":200.3368,"MEAN_ANOMALY":159.7836,"EPHEMERIS_TYPE":0,"CLASSIFICATION_TYPE":"U","NORAD_CAT_ID":60472,"ELEMENT_SET_NO":999,"REV_AT_EPOCH":8725,"BSTAR":0.00024888157,"MEAN_MOTION_DOT":5.776e-5,"MEAN_MOTION_DDOT":0},{"OBJECT_NAME":"LOPEN","OBJECT_ID":"2024-149F","EPOCH":"2026-03-14T11:36:09.166752","MEAN_MOTION":15.36811091,"ECCENTRICITY":0.00012549,"INCLINATION":97.3814,"RA_OF_ASC_NODE":156.3031,"ARG_OF_PERICENTER":173.3841,"MEAN_ANOMALY":186.742,"EPHEMERIS_TYPE":0,"CLASSIFICATION_TYPE":"U","NORAD_CAT_ID":60473,"ELEMENT_SET_NO":999,"REV_AT_EPOCH":8770,"BSTAR":0.00054875792,"MEAN_MOTION_DOT":0.00019687,"MEAN_MOTION_DDOT":0},{"OBJECT_NAME":"ROCK","OBJECT_ID":"2024-149G","EPOCH":"2026-03-14T11:17:25.177056","MEAN_MOTION":15.36827471,"ECCENTRICITY":0.00015704,"INCLINATION":97.381,"RA_OF_ASC_NODE":156.3095,"ARG_OF_PERICENTER":179.4389,"MEAN_ANOMALY":180.6858,"EPHEMERIS_TYPE":0,"CLASSIFICATION_TYPE":"U","NORAD_CAT_ID":60474,"ELEMENT_SET_NO":999,"REV_AT_EPOCH":8770,"BSTAR":0.00053020408,"MEAN_MOTION_DOT":0.00019027,"MEAN_MOTION_DDOT":0},{"OBJECT_NAME":"CONNECTA IOT-3","OBJECT_ID":"2024-149H","EPOCH":"2026-03-14T12:26:27.739104","MEAN_MOTION":15.23014406,"ECCENTRICITY":0.00020376,"INCLINATION":97.379,"RA_OF_ASC_NODE":151.2209,"ARG_OF_PERICENTER":208.9659,"MEAN_ANOMALY":151.1465,"EPHEMERIS_TYPE":0,"CLASSIFICATION_TYPE":"U","NORAD_CAT_ID":60475,"ELEMENT_SET_NO":999,"REV_AT_EPOCH":8739,"BSTAR":0.0002679416,"MEAN_MOTION_DOT":6.234e-5,"MEAN_MOTION_DDOT":0},{"OBJECT_NAME":"QUBE","OBJECT_ID":"2024-149J","EPOCH":"2026-03-14T11:36:09.911520","MEAN_MOTION":15.42725212,"ECCENTRICITY":0.00022213,"INCLINATION":97.3808,"RA_OF_ASC_NODE":158.4054,"ARG_OF_PERICENTER":183.2747,"MEAN_ANOMALY":176.8487,"EPHEMERIS_TYPE":0,"CLASSIFICATION_TYPE":"U","NORAD_CAT_ID":60476,"ELEMENT_SET_NO":999,"REV_AT_EPOCH":8784,"BSTAR":0.000633553,"MEAN_MOTION_DOT":0.00027643,"MEAN_MOTION_DDOT":0},{"OBJECT_NAME":"WREN-1","OBJECT_ID":"2024-149L","EPOCH":"2026-03-14T04:22:38.932320","MEAN_MOTION":15.37692189,"ECCENTRICITY":0.00038466,"INCLINATION":97.3805,"RA_OF_ASC_NODE":156.5607,"ARG_OF_PERICENTER":230.9829,"MEAN_ANOMALY":129.1073,"EPHEMERIS_TYPE":0,"CLASSIFICATION_TYPE":"U","NORAD_CAT_ID":60478,"ELEMENT_SET_NO":999,"REV_AT_EPOCH":8770,"BSTAR":0.00073043905,"MEAN_MOTION_DOT":0.00027019,"MEAN_MOTION_DDOT":0},{"OBJECT_NAME":"TOMORROW-S1","OBJECT_ID":"2024-149M","EPOCH":"2026-03-14T15:01:11.725824","MEAN_MOTION":15.31301803,"ECCENTRICITY":0.00023011,"INCLINATION":97.3792,"RA_OF_ASC_NODE":154.4821,"ARG_OF_PERICENTER":188.4575,"MEAN_ANOMALY":171.6628,"EPHEMERIS_TYPE":0,"CLASSIFICATION_TYPE":"U","NORAD_CAT_ID":60479,"ELEMENT_SET_NO":999,"REV_AT_EPOCH":8761,"BSTAR":0.00039239693,"MEAN_MOTION_DOT":0.00011793,"MEAN_MOTION_DDOT":0}]
